{"type":"FeatureCollection","features":[{"type":"Feature","geometry":{"type":"MultiPoint","coordinates":[]},"id":"100","properties":{"area_km2":0.0,"stage_m":1270.0,"volume_km3":0.0}},{"type":"Feature","geometry":{"type":"MultiPoint","coordinates":[]},"id":"99","properties":{"area_km2":0.0,"stage_m":1270.1,"volume_km3":0.0}},{"type":"Feature","geometry":{"type":"MultiPoint","coordinates":[]},"id":"98","properties":{"area_km2":14.77517448097229,"stage_m":1270.2,"volume_km3":0.0011397975036681266}},{"type":"Feature","geometry":{"type":"MultiPoint","coordinates":[]},"id":"97","properties":{"area_km2":22.729356802467347,"stage_m":1270.3,"volume_km3":0.0030006569415987365}},{"type":"Feature","geometry":{"type":"MultiPoint","coordinates":[]},"id":"96","properties":{"area_km2":32.459645518356325,"stage_m":1270.4,"volume_km3":0.005745725724475994}},{"type":"Feature","geometry":{"type":"MultiPoint","coordinates":[]},"id":"95","properties":{"area_km2":42.51033074356842,"stage_m":1270.5,"volume_km3":0.009556016110252608}},{"type":"Feature","geometry":{"type":"MultiPoint","coordinates":[]},"id":"94","properties":{"area_km2":52.121021431785586,"stage_m":1270.6,"volume_km3":0.014277360292311442}},{"type":"Feature","geometry":{"type":"MultiPoint","coordinates":[]},"id":"93","properties":{"area_km2":62.90409355242157,"stage_m":1270.7,"volume_km3":0.020017789726083233}},{"type":"Feature","geometry":{"type":"MultiPoint","coordinates":[]},"id":"92","properties":{"area_km2":90.74543780903626,"stage_m":1270.8,"volume_km3":0.028271488335911227}},{"type":"Feature","geometry":{"type":"MultiPoint","coordinates":[]},"id":"91","properties":{"area_km2":105.13373073462677,"stage_m":1270.9,"volume_km3":0.03805104829537473}},{"type":"Feature","geometry":{"type":"MultiPoint","coordinates":[]},"id":"90","properties":{"area_km2":121.27602221999359,"stage_m":1271.0,"volume_km3":0.04935714940902441}},{"type":"Feature","geometry":{"type":"MultiPoint","coordinates":[]},"id":"89","properties":{"area_km2":150.57976317046356,"stage_m":1271.1,"volume_km3":0.06344286675261913}},{"type":"Feature","geometry":{"type":"MultiPoint","coordinates":[]},"id":"88","properties":{"area_km2":165.06673776498414,"stage_m":1271.2,"volume_km3":0.07922944023918832}},{"type":"Feature","geometry":{"type":"MultiPoint","coordinates":[]},"id":"87","properties":{"area_km2":179.01975384075928,"stage_m":1271.3,"volume_km3":0.09643814352298717}},{"type":"Feature","geometry":{"type":"MultiPoint","coordinates":[]},"id":"86","properties":{"area_km2":192.12146277132416,"stage_m":1271.4,"volume_km3":0.11505712629273787}},{"type":"Feature","geometry":{"type":"MultiPoint","coordinates":[]},"id":"85","properties":{"area_km2":203.4592347761154,"stage_m":1271.5,"volume_km3":0.13483464406741855}},{"type":"Feature","geometry":{"type":"MultiPoint","coordinates":[]},"id":"84","properties":{"area_km2":214.96035692658995,"stage_m":1271.6,"volume_km3":0.15575317445528195}},{"type":"Feature","geometry":{"type":"MultiPoint","coordinates":[]},"id":"83","properties":{"area_km2":228.49358179166413,"stage_m":1271.7,"volume_km3":0.17797898197057277}},{"type":"Feature","geometry":{"type":"MultiPoint","coordinates":[]},"id":"82","properties":{"area_km2":239.97119821881867,"stage_m":1271.8,"volume_km3":0.20139931810728579}},{"type":"Feature","geometry":{"type":"MultiPoint","coordinates":[]},"id":"81","properties":{"area_km2":251.68211319770813,"stage_m":1271.9,"volume_km3":0.22598035497057098}},{"type":"Feature","geometry":{"type":"MultiPoint","coordinates":[]},"id":"80","properties":{"area_km2":266.30455795882415,"stage_m":1272.0,"volume_km3":0.2518820943194506}},{"type":"Feature","geometry":{"type":"MultiPoint","coordinates":[]},"id":"79","properties":{"area_km2":280.50751950022124,"stage_m":1272.1,"volume_km3":0.2792194190512992}},{"type":"Feature","geometry":{"type":"MultiPoint","coordinates":[]},"id":"78","properties":{"area_km2":295.0230610999374,"stage_m":1272.2,"volume_km3":0.3079931676023115}},{"type":"Feature","geometry":{"type":"MultiPoint","coordinates":[]},"id":"77","properties":{"area_km2":310.44443813840485,"stage_m":1272.3,"volume_km3":0.3382714445561943}},{"type":"Feature","geometry":{"type":"MultiPoint","coordinates":[]},"id":"76","properties":{"area_km2":325.7951347715225,"stage_m":1272.4,"volume_km3":0.37007922053666276}},{"type":"Feature","geometry":{"type":"MultiPoint","coordinates":[]},"id":"75","properties":{"area_km2":341.69797361347963,"stage_m":1272.5,"volume_km3":0.4034487057529115}},{"type":"Feature","geometry":{"type":"MultiPoint","coordinates":[]},"id":"74","properties":{"area_km2":356.99408975982664,"stage_m":1272.6,"volume_km3":0.43842077509337074}},{"type":"Feature","geometry":{"type":"MultiPoint","coordinates":[]},"id":"73","properties":{"area_km2":371.03245830124666,"stage_m":1272.7,"volume_km3":0.47481681259022773}},{"type":"Feature","geometry":{"type":"MultiPoint","coordinates":[]},"id":"72","properties":{"area_km2":385.68335059589384,"stage_m":1272.8,"volume_km3":0.5126470828734128}},{"type":"Feature","geometry":{"type":"MultiPoint","coordinates":[]},"id":"71","properties":{"area_km2":401.1465787617874,"stage_m":1272.9,"volume_km3":0.5520281139886556}},{"type":"Feature","geometry":{"type":"MultiPoint","coordinates":[]},"id":"70","properties":{"area_km2":414.067233957695,"stage_m":1273.0,"volume_km3":0.5927852809036653}},{"type":"Feature","geometry":{"type":"MultiPoint","coordinates":[]},"id":"69","properties":{"area_km2":427.431528646637,"stage_m":1273.1,"volume_km3":0.634856155870457}},{"type":"Feature","geometry":{"type":"MultiPoint","coordinates":[]},"id":"68","properties":{"area_km2":439.48338510265353,"stage_m":1273.2,"volume_km3":0.6782463244915272}},{"type":"Feature","geometry":{"type":"MultiPoint","coordinates":[]},"id":"67","properties":{"area_km2":449.9811163529816,"stage_m":1273.3,"volume_km3":0.7227147116431835}},{"type":"Feature","geometry":{"type":"MultiPoint","coordinates":[]},"id":"66","properties":{"area_km2":461.1049842921219,"stage_m":1273.4,"volume_km3":0.7682644048727069}},{"type":"Feature","geometry":{"type":"MultiPoint","coordinates":[]},"id":"65","properties":{"area_km2":477.62423385816953,"stage_m":1273.5,"volume_km3":0.8151717942719026}},{"type":"Feature","geometry":{"type":"MultiPoint","coordinates":[]},"id":"64","properties":{"area_km2":490.3746462043381,"stage_m":1273.6,"volume_km3":0.8635640365083542}},{"type":"Feature","geometry":{"type":"MultiPoint","coordinates":[]},"id":"63","properties":{"area_km2":503.9533403489914,"stage_m":1273.7,"volume_km3":0.9132734797745152}},{"type":"Feature","geometry":{"type":"MultiPoint","coordinates":[]},"id":"62","properties":{"area_km2":519.9346036054459,"stage_m":1273.8,"volume_km3":0.9644606921108015}},{"type":"Feature","geometry":{"type":"MultiPoint","coordinates":[]},"id":"61","properties":{"area_km2":533.4395692153854,"stage_m":1273.9,"volume_km3":1.0171237336016175}},{"type":"Feature","geometry":{"type":"MultiPoint","coordinates":[]},"id":"60","properties":{"area_km2":547.6467504542999,"stage_m":1274.0,"volume_km3":1.0711726756019004}},{"type":"Feature","geometry":{"type":"MultiPoint","coordinates":[]},"id":"59","properties":{"area_km2":564.512193374939,"stage_m":1274.1,"volume_km3":1.12676755568003}},{"type":"Feature","geometry":{"type":"MultiPoint","coordinates":[]},"id":"58","properties":{"area_km2":576.8220511469116,"stage_m":1274.2,"volume_km3":1.1838297156829258}},{"type":"Feature","geometry":{"type":"MultiPoint","coordinates":[]},"id":"57","properties":{"area_km2":589.7238757223815,"stage_m":1274.3,"volume_km3":1.2421526302851307}},{"type":"Feature","geometry":{"type":"MultiPoint","coordinates":[]},"id":"56","properties":{"area_km2":612.4655279616776,"stage_m":1274.4,"volume_km3":1.3020948355071267}},{"type":"Feature","geometry":{"type":"MultiPoint","coordinates":[]},"id":"55","properties":{"area_km2":624.204231546608,"stage_m":1274.5,"volume_km3":1.3639239222896873}},{"type":"Feature","geometry":{"type":"MultiPoint","coordinates":[]},"id":"54","properties":{"area_km2":636.400809605896,"stage_m":1274.6,"volume_km3":1.4269502260714784}},{"type":"Feature","geometry":{"type":"MultiPoint","coordinates":[]},"id":"53","properties":{"area_km2":650.0981399012451,"stage_m":1274.7,"volume_km3":1.491248918162881}},{"type":"Feature","geometry":{"type":"MultiPoint","coordinates":[]},"id":"52","properties":{"area_km2":662.4138953790283,"stage_m":1274.8,"volume_km3":1.5568701101151619}},{"type":"Feature","geometry":{"type":"MultiPoint","coordinates":[]},"id":"51","properties":{"area_km2":675.3008416747284,"stage_m":1274.9,"volume_km3":1.6237517521339744}},{"type":"Feature","geometry":{"type":"MultiPoint","coordinates":[]},"id":"50","properties":{"area_km2":697.0703563053055,"stage_m":1275.0,"volume_km3":1.6921344142027581}},{"type":"Feature","geometry":{"type":"MultiPoint","coordinates":[]},"id":"49","properties":{"area_km2":708.217753281868,"stage_m":1275.1,"volume_km3":1.7623977426130053}},{"type":"Feature","geometry":{"type":"MultiPoint","coordinates":[]},"id":"48","properties":{"area_km2":719.3854112757264,"stage_m":1275.2,"volume_km3":1.833777104092628}},{"type":"Feature","geometry":{"type":"MultiPoint","coordinates":[]},"id":"47","properties":{"area_km2":732.46219777108,"stage_m":1275.3,"volume_km3":1.9063071314447322}},{"type":"Feature","geometry":{"type":"MultiPoint","coordinates":[]},"id":"46","properties":{"area_km2":743.3985945303879,"stage_m":1275.4,"volume_km3":1.9800977984833847}},{"type":"Feature","geometry":{"type":"MultiPoint","coordinates":[]},"id":"45","properties":{"area_km2":754.6708291012574,"stage_m":1275.5,"volume_km3":2.0549983949024244}},{"type":"Feature","geometry":{"type":"MultiPoint","coordinates":[]},"id":"44","properties":{"area_km2":768.9500488872528,"stage_m":1275.6,"volume_km3":2.131074655194103}},{"type":"Feature","geometry":{"type":"MultiPoint","coordinates":[]},"id":"43","properties":{"area_km2":779.0779509990158,"stage_m":1275.7,"volume_km3":2.2084716333409737}},{"type":"Feature","geometry":{"type":"MultiPoint","coordinates":[]},"id":"42","properties":{"area_km2":789.8633333958282,"stage_m":1275.8,"volume_km3":2.2869121805106576}},{"type":"Feature","geometry":{"type":"MultiPoint","coordinates":[]},"id":"41","properties":{"area_km2":804.1740843388214,"stage_m":1275.9,"volume_km3":2.366487220436726}},{"type":"Feature","geometry":{"type":"MultiPoint","coordinates":[]},"id":"40","properties":{"area_km2":814.654401268898,"stage_m":1276.0,"volume_km3":2.447424545522159}},{"type":"Feature","geometry":{"type":"MultiPoint","coordinates":[]},"id":"39","properties":{"area_km2":825.6646522641754,"stage_m":1276.1,"volume_km3":2.5294356879153574}},{"type":"Feature","geometry":{"type":"MultiPoint","coordinates":[]},"id":"38","properties":{"area_km2":838.5043250716706,"stage_m":1276.2,"volume_km3":2.6125750796804734}},{"type":"Feature","geometry":{"type":"MultiPoint","coordinates":[]},"id":"37","properties":{"area_km2":847.6202500119094,"stage_m":1276.3,"volume_km3":2.6968802541305483}},{"type":"Feature","geometry":{"type":"MultiPoint","coordinates":[]},"id":"36","properties":{"area_km2":857.002796027565,"stage_m":1276.4,"volume_km3":2.7821091901284793}},{"type":"Feature","geometry":{"type":"MultiPoint","coordinates":[]},"id":"35","properties":{"area_km2":866.7252178825988,"stage_m":1276.5,"volume_km3":2.8682938685165875}},{"type":"Feature","geometry":{"type":"MultiPoint","coordinates":[]},"id":"34","properties":{"area_km2":875.2538568671341,"stage_m":1276.6,"volume_km3":2.9553988114320893}},{"type":"Feature","geometry":{"type":"MultiPoint","coordinates":[]},"id":"33","properties":{"area_km2":883.8072512817764,"stage_m":1276.7,"volume_km3":3.04334991940006}},{"type":"Feature","geometry":{"type":"MultiPoint","coordinates":[]},"id":"32","properties":{"area_km2":892.5939047997208,"stage_m":1276.8,"volume_km3":3.132168272941817}},{"type":"Feature","geometry":{"type":"MultiPoint","coordinates":[]},"id":"31","properties":{"area_km2":901.5351138373948,"stage_m":1276.9,"volume_km3":3.221882280733638}},{"type":"Feature","geometry":{"type":"MultiPoint","coordinates":[]},"id":"30","properties":{"area_km2":910.5583747819901,"stage_m":1277.0,"volume_km3":3.312485054731344}},{"type":"Feature","geometry":{"type":"MultiPoint","coordinates":[]},"id":"29","properties":{"area_km2":919.7902250958557,"stage_m":1277.1,"volume_km3":3.403999815677768}},{"type":"Feature","geometry":{"type":"MultiPoint","coordinates":[]},"id":"28","properties":{"area_km2":929.3055016060562,"stage_m":1277.2,"volume_km3":3.4964722247114417}},{"type":"Feature","geometry":{"type":"MultiPoint","coordinates":[]},"id":"27","properties":{"area_km2":938.574957533905,"stage_m":1277.3,"volume_km3":3.5898635095809954}},{"type":"Feature","geometry":{"type":"MultiPoint","coordinates":[]},"id":"26","properties":{"area_km2":948.1446003732376,"stage_m":1277.4,"volume_km3":3.6841968885309457}},{"type":"Feature","geometry":{"type":"MultiPoint","coordinates":[]},"id":"25","properties":{"area_km2":961.5587849406128,"stage_m":1277.5,"volume_km3":3.779706704536659}},{"type":"Feature","geometry":{"type":"MultiPoint","coordinates":[]},"id":"24","properties":{"area_km2":974.2400571625137,"stage_m":1277.6,"volume_km3":3.876494664508957}},{"type":"Feature","geometry":{"type":"MultiPoint","coordinates":[]},"id":"23","properties":{"area_km2":987.1137844817963,"stage_m":1277.7,"volume_km3":3.974561362310294}},{"type":"Feature","geometry":{"type":"MultiPoint","coordinates":[]},"id":"22","properties":{"area_km2":1001.2161563914414,"stage_m":1277.8,"volume_km3":4.074050038896649}},{"type":"Feature","geometry":{"type":"MultiPoint","coordinates":[]},"id":"21","properties":{"area_km2":1013.173750028946,"stage_m":1277.9,"volume_km3":4.174767340319082}},{"type":"Feature","geometry":{"type":"MultiPoint","coordinates":[]},"id":"20","properties":{"area_km2":1025.4233659320755,"stage_m":1278.0,"volume_km3":4.276694779085252}},{"type":"Feature","geometry":{"type":"MultiPoint","coordinates":[]},"id":"19","properties":{"area_km2":1041.0599488089294,"stage_m":1278.1,"volume_km3":4.380117913376901}},{"type":"Feature","geometry":{"type":"MultiPoint","coordinates":[]},"id":"18","properties":{"area_km2":1052.6233807688066,"stage_m":1278.2,"volume_km3":4.484801252858828}},{"type":"Feature","geometry":{"type":"MultiPoint","coordinates":[]},"id":"17","properties":{"area_km2":1064.2032609284133,"stage_m":1278.3,"volume_km3":4.590642825890049}},{"type":"Feature","geometry":{"type":"MultiPoint","coordinates":[]},"id":"16","properties":{"area_km2":1079.1696550296479,"stage_m":1278.4,"volume_km3":4.697867400080896}},{"type":"Feature","geometry":{"type":"MultiPoint","coordinates":[]},"id":"15","properties":{"area_km2":1091.5973028735123,"stage_m":1278.5,"volume_km3":4.8064005777222}},{"type":"Feature","geometry":{"type":"MultiPoint","coordinates":[]},"id":"14","properties":{"area_km2":1104.5588269596176,"stage_m":1278.6,"volume_km3":4.916202542885362}},{"type":"Feature","geometry":{"type":"MultiPoint","coordinates":[]},"id":"13","properties":{"area_km2":1158.538749009117,"stage_m":1278.7,"volume_km3":5.02982991037099}},{"type":"Feature","geometry":{"type":"MultiPoint","coordinates":[]},"id":"12","properties":{"area_km2":1176.6557556526488,"stage_m":1278.8,"volume_km3":5.146589403780055}},{"type":"Feature","geometry":{"type":"MultiPoint","coordinates":[]},"id":"11","properties":{"area_km2":1194.6979094818803,"stage_m":1278.9,"volume_km3":5.26515814207139}},{"type":"Feature","geometry":{"type":"MultiPoint","coordinates":[]},"id":"10","properties":{"area_km2":1241.8740047213907,"stage_m":1279.0,"volume_km3":5.387243227056292}},{"type":"Feature","geometry":{"type":"MultiPoint","coordinates":[]},"id":"9","properties":{"area_km2":1261.0627925775614,"stage_m":1279.1,"volume_km3":5.512385159497257}},{"type":"Feature","geometry":{"type":"MultiPoint","coordinates":[]},"id":"8","properties":{"area_km2":1280.9441291451337,"stage_m":1279.2,"volume_km3":5.6394806604714836}},{"type":"Feature","geometry":{"type":"MultiPoint","coordinates":[]},"id":"7","properties":{"area_km2":1324.3309838106532,"stage_m":1279.3,"volume_km3":5.769946112172462}},{"type":"Feature","geometry":{"type":"MultiPoint","coordinates":[]},"id":"6","properties":{"area_km2":1337.991844139266,"stage_m":1279.4,"volume_km3":5.9030642376254825}},{"type":"Feature","geometry":{"type":"MultiPoint","coordinates":[]},"id":"5","properties":{"area_km2":1351.6806036181013,"stage_m":1279.5,"volume_km3":6.037547788337661}},{"type":"Feature","geometry":{"type":"MultiPoint","coordinates":[]},"id":"4","properties":{"area_km2":1385.6792197285033,"stage_m":1279.6,"volume_km3":6.174385753623582}},{"type":"Feature","geometry":{"type":"MultiPoint","coordinates":[]},"id":"3","properties":{"area_km2":1400.554963567832,"stage_m":1279.7,"volume_km3":6.3137036957474395}},{"type":"Feature","geometry":{"type":"MultiPoint","coordinates":[]},"id":"2","properties":{"area_km2":1414.6249538031202,"stage_m":1279.8,"volume_km3":6.454472069344999}},{"type":"Feature","geometry":{"type":"MultiPoint","coordinates":[]},"id":"1","properties":{"area_km2":1436.1042787879708,"stage_m":1279.9,"volume_km3":6.597007416800571}},{"type":"Feature","geometry":{"type":"MultiPoint","coordinates":[]},"id":"0","properties":{"area_km2":1445.6638395695145,"stage_m":1280.0,"volume_km3":6.741096896608748}}]}